{"type": "FeatureCollection", "features": [ {"type": "Feature", "properties": {"norad_id": 32230, "name": "FENGYUN 1C DEB", "group": "fengyun-1c-debris", "lat": -5.114270097739499, "lon": 129.35494031913714, "alt_km": 727.4122335094689, "timestamp": "2025-12-05T09:41:19.416002+00:00", "meta": {"OBJECT_NAME": "FENGYUN 1C DEB", "OBJECT_ID": "1999-025CWC", "EPOCH": "2025-11-30T09:24:55.537344", "MEAN_MOTION": 14.55588472, "ECCENTRICITY": 0.00526929, "INCLINATION": 98.8709, "RA_OF_ASC_NODE": 123.2328, "ARG_OF_PERICENTER": 127.3302, "MEAN_ANOMALY": 261.6517, "EPHEMERIS_TYPE": 0, "CLASSIFICATION_TYPE": "U", "NORAD_CAT_ID": 32230, "ELEMENT_SET_NO": 999, "REV_AT_EPOCH": 60490, "BSTAR": 0.0036213421, "MEAN_MOTION_DOT": 0.00016074, "MEAN_MOTION_DDOT": 0}, "tle": {"line1": "1 32230U 99025CWC 25334.39230946  .00016074  00000+0  36213-2 0  9992", "line2": "2 32230  98.8709 123.2328 0052692 127.3302 261.6517 14.55588472604902"}}, "geometry": {"type": "Point", "coordinates": [129.35494031913714, -5.114270097739499]}}, {"type": "Feature", "properties": {"norad_id": 32234, "name": "FENGYUN 1C DEB", "group": "fengyun-1c-debris", "lat": -43.42782692495978, "lon": -162.02241471068524, "alt_km": 843.7246834704483, "timestamp": "2025-12-05T09:41:19.416012+00:00", "meta": {"OBJECT_NAME": "FENGYUN 1C DEB", "OBJECT_ID": "1999-025CWG", "EPOCH": "2025-12-02T12:59:39.185664", "MEAN_MOTION": 13.9406659, "ECCENTRICITY": 0.0137699, "INCLINATION": 98.5292, "RA_OF_ASC_NODE": 187.1676, "ARG_OF_PERICENTER": 4.214, "MEAN_ANOMALY": 356.0148, "EPHEMERIS_TYPE": 0, "CLASSIFICATION_TYPE": "U", "NORAD_CAT_ID": 32234, "ELEMENT_SET_NO": 999, "REV_AT_EPOCH": 93067, "BSTAR": 0.0016148587, "MEAN_MOTION_DOT": 2.273e-05, "MEAN_MOTION_DDOT": 0}, "tle": {"line1": "1 32234U 99025CWG 25336.54142576  .00002273  00000+0  16149-2 0  9998", "line2": "2 32234  98.5292 187.1676 0137699   4.2140 356.0148 13.94066590930678"}}, "geometry": {"type": "Point", "coordinates": [-162.02241471068524, -43.42782692495978]}}, {"type": "Feature", "properties": {"norad_id": 32241, "name": "FENGYUN 1C DEB", "group": "fengyun-1c-debris", "lat": 22.281671976229465, "lon": -167.68324714663785, "alt_km": 789.5680318606101, "timestamp": "2025-12-05T09:41:19.416022+00:00", "meta": {"OBJECT_NAME": "FENGYUN 1C DEB", "OBJECT_ID": "1999-025CWP", "EPOCH": "2025-11-30T21:21:41.757696", "MEAN_MOTION": 14.28586446, "ECCENTRICITY": 0.01459462, "INCLINATION": 99.0795, "RA_OF_ASC_NODE": 3.8635, "ARG_OF_PERICENTER": 257.6893, "MEAN_ANOMALY": 100.7915, "EPHEMERIS_TYPE": 0, "CLASSIFICATION_TYPE": "U", "NORAD_CAT_ID": 32241, "ELEMENT_SET_NO": 999, "REV_AT_EPOCH": 93654, "BSTAR": 0.0016863923, "MEAN_MOTION_DOT": 4.696e-05, "MEAN_MOTION_DDOT": 0}, "tle": {"line1": "1 32241U 99025CWP 25334.89006664  .00004696  00000+0  16864-2 0  9994", "line2": "2 32241  99.0795   3.8635 0145946 257.6893 100.7915 14.28586446936545"}}, "geometry": {"type": "Point", "coordinates": [-167.68324714663785, 22.281671976229465]}}, {"type": "Feature", "properties": {"norad_id": 32243, "name": "FENGYUN 1C DEB", "group": "fengyun-1c-debris", "lat": 18.638793805390865, "lon": 1.8609254250055989, "alt_km": 988.1531644025854, "timestamp": "2025-12-05T09:41:19.416032+00:00", "meta": {"OBJECT_NAME": "FENGYUN 1C DEB", "OBJECT_ID": "1999-025CWR", "EPOCH": "2025-12-04T01:06:35.910144", "MEAN_MOTION": 14.04501294, "ECCENTRICITY": 0.02694789, "INCLINATION": 98.2701, "RA_OF_ASC_NODE": 3.4342, "ARG_OF_PERICENTER": 148.2248, "MEAN_ANOMALY": 213.5505, "EPHEMERIS_TYPE": 0, "CLASSIFICATION_TYPE": "U", "NORAD_CAT_ID": 32243, "ELEMENT_SET_NO": 999, "REV_AT_EPOCH": 93466, "BSTAR": 0.0033443535, "MEAN_MOTION_DOT": 7.349e-05, "MEAN_MOTION_DDOT": 0}, "tle": {"line1": "1 32243U 99025CWR 25338.04624896  .00007349  00000+0  33444-2 0  9991", "line2": "2 32243  98.2701   3.4342 0269478 148.2248 213.5505 14.04501294934663"}}, "geometry": {"type": "Point", "coordinates": [1.8609254250055989, 18.638793805390865]}}, {"type": "Feature", "properties": {"norad_id": 32245, "name": "FENGYUN 1C DEB", "group": "fengyun-1c-debris", "lat": -3.0908360153502437, "lon": -5.549698673760552, "alt_km": 712.0502098115912, "timestamp": "2025-12-05T09:41:19.416042+00:00", "meta": {"OBJECT_NAME": "FENGYUN 1C DEB", "OBJECT_ID": "1999-025CWT", "EPOCH": "2025-11-30T06:53:48.437088", "MEAN_MOTION": 14.76630741, "ECCENTRICITY": 0.00984246, "INCLINATION": 98.6553, "RA_OF_ASC_NODE": 169.4391, "ARG_OF_PERICENTER": 21.1118, "MEAN_ANOMALY": 339.4109, "EPHEMERIS_TYPE": 0, "CLASSIFICATION_TYPE": "U", "NORAD_CAT_ID": 32245, "ELEMENT_SET_NO": 999, "REV_AT_EPOCH": 65922, "BSTAR": 0.0012142086, "MEAN_MOTION_DOT": 9.134e-05, "MEAN_MOTION_DDOT": 0}, "tle": {"line1": "1 32245U 99025CWT 25334.28736617  .00009134  00000+0  12142-2 0  9996", "line2": "2 32245  98.6553 169.4391 0098424  21.1118 339.4109 14.76630741659220"}}, "geometry": {"type": "Point", "coordinates": [-5.549698673760552, -3.0908360153502437]}}, {"type": "Feature", "properties": {"norad_id": 32304, "name": "FENGYUN 1C DEB", "group": "fengyun-1c-debris", "lat": 21.804533434502815, "lon": 116.92301307369972, "alt_km": 724.5237793216238, "timestamp": "2025-12-05T09:41:19.416053+00:00", "meta": {"OBJECT_NAME": "FENGYUN 1C DEB", "OBJECT_ID": "1999-025CWV", "EPOCH": "2025-12-03T02:19:20.087328", "MEAN_MOTION": 14.50391603, "ECCENTRICITY": 0.00495576, "INCLINATION": 99.3949, "RA_OF_ASC_NODE": 290.5539, "ARG_OF_PERICENTER": 255.7789, "MEAN_ANOMALY": 103.7894, "EPHEMERIS_TYPE": 0, "CLASSIFICATION_TYPE": "U", "NORAD_CAT_ID": 32304, "ELEMENT_SET_NO": 999, "REV_AT_EPOCH": 56133, "BSTAR": 0.0019806873, "MEAN_MOTION_DOT": 7.809e-05, "MEAN_MOTION_DDOT": 0}, "tle": {"line1": "1 32304U 99025CWV 25337.09676027  .00007809  00000+0  19807-2 0  9994", "line2": "2 32304  99.3949 290.5539 0049557 255.7789 103.7894 14.50391603561335"}}, "geometry": {"type": "Point", "coordinates": [116.92301307369972, 21.804533434502815]}}, {"type": "Feature", "properties": {"norad_id": 32308, "name": "FENGYUN 1C DEB", "group": "fengyun-1c-debris", "lat": 9.32262383053442, "lon": -145.37173483550325, "alt_km": 873.9633219184698, "timestamp": "2025-12-05T09:41:19.416063+00:00", "meta": {"OBJECT_NAME": "FENGYUN 1C DEB", "OBJECT_ID": "1999-025CWZ", "EPOCH": "2025-12-03T02:12:55.939104", "MEAN_MOTION": 14.05417361, "ECCENTRICITY": 0.01095705, "INCLINATION": 97.7759, "RA_OF_ASC_NODE": 31.3586, "ARG_OF_PERICENTER": 88.4654, "MEAN_ANOMALY": 272.9065, "EPHEMERIS_TYPE": 0, "CLASSIFICATION_TYPE": "U", "NORAD_CAT_ID": 32308, "ELEMENT_SET_NO": 999, "REV_AT_EPOCH": 65276, "BSTAR": 0.002206276, "MEAN_MOTION_DOT": 3.744e-05, "MEAN_MOTION_DDOT": 0}, "tle": {"line1": "1 32308U 99025CWZ 25337.09231411  .00003744  00000+0  22063-2 0  9994", "line2": "2 32308  97.7759  31.3586 0109570  88.4654 272.9065 14.05417361652764"}}, "geometry": {"type": "Point", "coordinates": [-145.37173483550325, 9.32262383053442]}}, {"type": "Feature", "properties": {"norad_id": 32314, "name": "FENGYUN 1C DEB", "group": "fengyun-1c-debris", "lat": -58.26520623045862, "lon": -110.91879508272505, "alt_km": 582.9326416020876, "timestamp": "2025-12-05T09:41:19.416073+00:00", "meta": {"OBJECT_NAME": "FENGYUN 1C DEB", "OBJECT_ID": "1999-025CXF", "EPOCH": "2025-12-04T13:08:02.220288", "MEAN_MOTION": 14.7913301, "ECCENTRICITY": 0.0149848, "INCLINATION": 98.8648, "RA_OF_ASC_NODE": 82.7546, "ARG_OF_PERICENTER": 183.566, "MEAN_ANOMALY": 176.4494, "EPHEMERIS_TYPE": 0, "CLASSIFICATION_TYPE": "U", "NORAD_CAT_ID": 32314, "ELEMENT_SET_NO": 999, "REV_AT_EPOCH": 97309, "BSTAR": 0.0034998, "MEAN_MOTION_DOT": 0.0003142, "MEAN_MOTION_DDOT": 0}, "tle": {"line1": "1 32314U 99025CXF 25338.54724792  .00031420  00000+0  34998-2 0  9993", "line2": "2 32314  98.8648  82.7546 0149848 183.5660 176.4494 14.79133010973095"}}, "geometry": {"type": "Point", "coordinates": [-110.91879508272505, -58.26520623045862]}}, {"type": "Feature", "properties": {"norad_id": 32315, "name": "FENGYUN 1C DEB", "group": "fengyun-1c-debris", "lat": 63.88695044281719, "lon": 98.78218751917673, "alt_km": 935.902515837287, "timestamp": "2025-12-05T09:41:19.416084+00:00", "meta": {"OBJECT_NAME": "FENGYUN 1C DEB", "OBJECT_ID": "1999-025CXG", "EPOCH": "2025-11-20T16:04:27.676128", "MEAN_MOTION": 13.66155502, "ECCENTRICITY": 0.02289149, "INCLINATION": 100.8052, "RA_OF_ASC_NODE": 105.2905, "ARG_OF_PERICENTER": 168.6, "MEAN_ANOMALY": 192.0449, "EPHEMERIS_TYPE": 0, "CLASSIFICATION_TYPE": "U", "NORAD_CAT_ID": 32315, "ELEMENT_SET_NO": 999, "REV_AT_EPOCH": 60787, "BSTAR": 0.00024184327, "MEAN_MOTION_DOT": 1.85e-06, "MEAN_MOTION_DDOT": 0}, "tle": {"line1": "1 32315U 99025CXG 25324.66976477  .00000185  00000+0  24184-3 0  9992", "line2": "2 32315 100.8052 105.2905 0228914 168.6000 192.0449 13.66155502607872"}}, "geometry": {"type": "Point", "coordinates": [98.78218751917673, 63.88695044281719]}}, {"type": "Feature", "properties": {"norad_id": 32316, "name": "FENGYUN 1C DEB", "group": "fengyun-1c-debris", "lat": -71.96667159779683, "lon": 153.82470876482748, "alt_km": 729.7486957169885, "timestamp": "2025-12-05T09:41:19.416094+00:00", "meta": {"OBJECT_NAME": "FENGYUN 1C DEB", "OBJECT_ID": "1999-025CXH", "EPOCH": "2025-12-02T20:07:23.464992", "MEAN_MOTION": 14.51637168, "ECCENTRICITY": 0.00267203, "INCLINATION": 99.5304, "RA_OF_ASC_NODE": 1.9849, "ARG_OF_PERICENTER": 359.4201, "MEAN_ANOMALY": 177.2227, "EPHEMERIS_TYPE": 0, "CLASSIFICATION_TYPE": "U", "NORAD_CAT_ID": 32316, "ELEMENT_SET_NO": 999, "REV_AT_EPOCH": 95633, "BSTAR": 0.002174683, "MEAN_MOTION_DOT": 8.712e-05, "MEAN_MOTION_DDOT": 0}, "tle": {"line1": "1 32316U 99025CXH 25336.83846603  .00008712  00000+0  21747-2 0  9997", "line2": "2 32316  99.5304   1.9849 0026720 359.4201 177.2227 14.51637168956335"}}, "geometry": {"type": "Point", "coordinates": [153.82470876482748, -71.96667159779683]}}]}